{
    "links": {
        "next": "https://api.nasa.gov/neo/rest/v1/neo/browse?page=2&size=20&api_key=DEMO_KEY",
        "prev": "https://api.nasa.gov/neo/rest/v1/neo/browse?page=0&size=20&api_key=DEMO_KEY",
        "self": "https://api.nasa.gov/neo/rest/v1/neo/browse?page=1&size=20&api_key=DEMO_KEY"
    },
    "page": {
        "size": 20,
        "total_elements": 16660,
        "total_pages": 2,
        "number": 1
    },
    "near_earth_objects": [
        {
            "links": {
                "self": "https://api.nasa.gov/neo/rest/v1/neo/3092117?api_key=DEMO_KEY"
            },
            "neo_reference_id": "3092117",
            "name": "(1993 HP1)",
            "nasa_jpl_url": "http://ssd.jpl.nasa.gov/sbdb.cgi?sstr=3092117",
            "absolute_magnitude_h": 27.1,
            "estimated_diameter": {
                "kilometers": {
                    "estimated_diameter_min": 0.0101054342,
                    "estimated_diameter_max": 0.0225964377
                },
                "meters": {
                    "estimated_diameter_min": 10.1054341542,
                    "estimated_diameter_max": 22.5964377109
                },
                "miles": {
                    "estimated_diameter_min": 0.0062792237,
                    "estimated_diameter_max": 0.0140407711
                },
                "feet": {
                    "estimated_diameter_min": 33.1543125905,
                    "estimated_diameter_max": 74.1352966996
                }
            },
            "is_potentially_hazardous_asteroid": false,
            "close_approach_data": [
                {
                    "close_approach_date": "1993-04-26",
                    "epoch_date_close_approach": 735807600000,
                    "relative_velocity": {
                        "kilometers_per_second": "9.3267902721",
                        "kilometers_per_hour": "33576.4449794226",
                        "miles_per_hour": "20863.0971595751"
                    },
                    "miss_distance": {
                        "astronomical": "0.0064906536",
                        "lunar": "2.5248641968",
                        "kilometers": "970987.9375",
                        "miles": "603343.9375"
                    },
                    "orbiting_body": "Moon"
                },
                {
                    "close_approach_date": "1993-04-26",
                    "epoch_date_close_approach": 735807600000,
                    "relative_velocity": {
                        "kilometers_per_second": "9.3855999097",
                        "kilometers_per_hour": "33788.1596748298",
                        "miles_per_hour": "20994.6484379519"
                    },
                    "miss_distance": {
                        "astronomical": "0.005772756",
                        "lunar": "2.2456021309",
                        "kilometers": "863592",
                        "miles": "536611.1875"
                    },
                    "orbiting_body": "Earth"
                }
            ],
            "orbital_data": {
                "orbit_id": "12",
                "orbit_determination_date": "2017-04-06 09:18:20",
                "orbit_uncertainty": "9",
                "minimum_orbit_intersection": ".00484466",
                "jupiter_tisserand_invariant": "3.654",
                "epoch_osculation": "2449104.5",
                "eccentricity": ".5138461348260945",
                "semi_major_axis": "2.00061037932295",
                "inclination": "8.02344627272389",
                "ascending_node_longitude": "37.0669658482111",
                "orbital_period": "1033.575493120923",
                "perihelion_distance": ".9726044686148856",
                "perihelion_argument": "151.7051538585082",
                "aphelion_distance": "3.028616290031015",
                "perihelion_time": "2449081.722841985999",
                "mean_anomaly": "7.933408773345432",
                "mean_motion": ".3483054720202059",
                "equinox": "J2000"
            }
        },
        {
            "links": {
                "self": "https://api.nasa.gov/neo/rest/v1/neo/3092118?api_key=DEMO_KEY"
            },
            "neo_reference_id": "3092118",
            "name": "(1993 UA)",
            "nasa_jpl_url": "http://ssd.jpl.nasa.gov/sbdb.cgi?sstr=3092118",
            "absolute_magnitude_h": 25.4,
            "estimated_diameter": {
                "kilometers": {
                    "estimated_diameter_min": 0.022108281,
                    "estimated_diameter_max": 0.0494356193
                },
                "meters": {
                    "estimated_diameter_min": 22.1082810359,
                    "estimated_diameter_max": 49.435619262
                },
                "miles": {
                    "estimated_diameter_min": 0.0137374447,
                    "estimated_diameter_max": 0.0307178602
                },
                "feet": {
                    "estimated_diameter_min": 72.5337327539,
                    "estimated_diameter_max": 162.1903570994
                }
            },
            "is_potentially_hazardous_asteroid": false,
            "close_approach_data": [
                {
                    "close_approach_date": "1993-10-18",
                    "epoch_date_close_approach": 750927600000,
                    "relative_velocity": {
                        "kilometers_per_second": "9.5580342691",
                        "kilometers_per_hour": "34408.9233688352",
                        "miles_per_hour": "21380.3668565965"
                    },
                    "miss_distance": {
                        "astronomical": "0.0070437857",
                        "lunar": "2.7400326729",
                        "kilometers": "1053735.375",
                        "miles": "654760.8125"
                    },
                    "orbiting_body": "Moon"
                },
                {
                    "close_approach_date": "1993-10-18",
                    "epoch_date_close_approach": 750927600000,
                    "relative_velocity": {
                        "kilometers_per_second": "9.4684663141",
                        "kilometers_per_hour": "34086.4787307673",
                        "miles_per_hour": "21180.0122980148"
                    },
                    "miss_distance": {
                        "astronomical": "0.0066615663",
                        "lunar": "2.5913493633",
                        "kilometers": "996556.1875",
                        "miles": "619231.3125"
                    },
                    "orbiting_body": "Earth"
                }
            ],
            "orbital_data": {
                "orbit_id": "12",
                "orbit_determination_date": "2017-04-06 09:18:19",
                "orbit_uncertainty": "7",
                "minimum_orbit_intersection": ".00248754",
                "jupiter_tisserand_invariant": "3.644",
                "epoch_osculation": "2458000.5",
                "eccentricity": ".5242244290895908",
                "semi_major_axis": "2.009820745820511",
                "inclination": "4.651670846771544",
                "ascending_node_longitude": "26.82301857791947",
                "orbital_period": "1040.721230249102",
                "perihelion_distance": ".9562236127703378",
                "perihelion_argument": "330.2219649286573",
                "aphelion_distance": "3.063417878870683",
                "perihelion_time": "2457656.948826241305",
                "mean_anomaly": "118.8391463134918",
                "mean_motion": ".3459139580671685",
                "equinox": "J2000"
            }
        }
    ]
}
